[
    {
        "Altitude(m)": 706857.1508215797,
        "Argument of Periapsis(deg)": 0.009112096949301655,
        "Eccentricity": 0.0,
        "Inclination(deg)": 45.0,
        "Latitude(deg)": 43.15102014837898,
        "Longitude(deg)": -166.7977985111641,
        "Mean Anomaly(deg)": 74.68107331798464,
        "RAAN(deg)": 224.99139844683341,
        "Satellite Name": "Constellation 1 994",
        "Satellite Number": 994,
        "Semi-Major Axis(m)": 7083131.272910544,
        "Time(s)": 152
    },
    {
        "Altitude(m)": 706860.6158489698,
        "Argument of Periapsis(deg)": 0.009172044955547059,
        "Eccentricity": 0.0,
        "Inclination(deg)": 45.0,
        "Latitude(deg)": 43.16654042441705,
        "Longitude(deg)": -166.72160916707713,
        "Mean Anomaly(deg)": 74.74177445823452,
        "RAAN(deg)": 224.99134185766786,
        "Satellite Name": "Constellation 1 994",
        "Satellite Number": 994,
        "Semi-Major Axis(m)": 7083131.272910544,
        "Time(s)": 153
    },
    {
        "Altitude(m)": 706864.0688680948,
        "Argument of Periapsis(deg)": 0.009231992961792466,
        "Eccentricity": 0.0,
        "Inclination(deg)": 45.0,
        "Latitude(deg)": 43.18200429777838,
        "Longitude(deg)": -166.6453792577539,
        "Mean Anomaly(deg)": 74.80247559848448,
        "RAAN(deg)": 224.99128526850228,
        "Satellite Name": "Constellation 1 994",
        "Satellite Number": 994,
        "Semi-Major Axis(m)": 7083131.272910544,
        "Time(s)": 154
    },
    {
        "Altitude(m)": 706867.5098585414,
        "Argument of Periapsis(deg)": 0.009291940968037872,
        "Eccentricity": 0.0,
        "Inclination(deg)": 45.0,
        "Latitude(deg)": 43.19741171007235,
        "Longitude(deg)": -166.569108888616,
        "Mean Anomaly(deg)": 74.86317673873437,
        "RAAN(deg)": 224.99122867933673,
        "Satellite Name": "Constellation 1 994",
        "Satellite Number": 994,
        "Semi-Major Axis(m)": 7083131.272910544,
        "Time(s)": 155
    },
    {
        "Altitude(m)": 706870.938799982,
        "Argument of Periapsis(deg)": 0.009351888974283276,
        "Eccentricity": 0.0,
        "Inclination(deg)": 45.0,
        "Latitude(deg)": 43.212762603047125,
        "Longitude(deg)": -166.49279833374464,
        "Mean Anomaly(deg)": 74.92387787898423,
        "RAAN(deg)": 224.99117209017115,
        "Satellite Name": "Constellation 1 994",
        "Satellite Number": 994,
        "Semi-Major Axis(m)": 7083131.272910544,
        "Time(s)": 156
    },
    {
        "Altitude(m)": 706874.3556721526,
        "Argument of Periapsis(deg)": 0.00941183698052868,
        "Eccentricity": 0.0,
        "Inclination(deg)": 45.0,
        "Latitude(deg)": 43.22805691858927,
        "Longitude(deg)": -166.416447363492,
        "Mean Anomaly(deg)": 74.98457901923416,
        "RAAN(deg)": 224.9911155010056,
        "Satellite Name": "Constellation 1 994",
        "Satellite Number": 994,
        "Semi-Major Axis(m)": 7083131.272910544,
        "Time(s)": 157
    },
    {
        "Altitude(m)": 706877.7604548712,
        "Argument of Periapsis(deg)": 0.009471784986774088,
        "Eccentricity": 0.0,
        "Inclination(deg)": 45.0,
        "Latitude(deg)": 43.243294598726465,
        "Longitude(deg)": -166.3400562530633,
        "Mean Anomaly(deg)": 75.04528015948407,
        "RAAN(deg)": 224.99105891184,
        "Satellite Name": "Constellation 1 994",
        "Satellite Number": 994,
        "Semi-Major Axis(m)": 7083131.272910544,
        "Time(s)": 158
    },
    {
        "Altitude(m)": 706881.1531280231,
        "Argument of Periapsis(deg)": 0.009531732993019492,
        "Eccentricity": 0.0,
        "Inclination(deg)": 45.0,
        "Latitude(deg)": 43.258475585627366,
        "Longitude(deg)": -166.26362511012783,
        "Mean Anomaly(deg)": 75.10598129973391,
        "RAAN(deg)": 224.99100232267443,
        "Satellite Name": "Constellation 1 994",
        "Satellite Number": 994,
        "Semi-Major Axis(m)": 7083131.272910544,
        "Time(s)": 159
    },
    {
        "Altitude(m)": 706884.5336715684,
        "Argument of Periapsis(deg)": 0.009591680999264898,
        "Eccentricity": 0.0,
        "Inclination(deg)": 45.0,
        "Latitude(deg)": 43.27359982160273,
        "Longitude(deg)": -166.18715404291623,
        "Mean Anomaly(deg)": 75.1666824399838,
        "RAAN(deg)": 224.99094573350888,
        "Satellite Name": "Constellation 1 994",
        "Satellite Number": 994,
        "Semi-Major Axis(m)": 7083131.272910544,
        "Time(s)": 160
    },
    {
        "Altitude(m)": 706887.9020655464,
        "Argument of Periapsis(deg)": 0.009651629005510304,
        "Eccentricity": 0.0,
        "Inclination(deg)": 45.0,
        "Latitude(deg)": 43.28866724910631,
        "Longitude(deg)": -166.1106431602196,
        "Mean Anomaly(deg)": 75.22738358023373,
        "RAAN(deg)": 224.99088914434333,
        "Satellite Name": "Constellation 1 994",
        "Satellite Number": 994,
        "Semi-Major Axis(m)": 7083131.272910544,
        "Time(s)": 161
    },
    {
        "Altitude(m)": 706891.2582900596,
        "Argument of Periapsis(deg)": 0.00971157701175571,
        "Eccentricity": 0.0,
        "Inclination(deg)": 45.0,
        "Latitude(deg)": 43.30367781073572,
        "Longitude(deg)": -166.03409257138958,
        "Mean Anomaly(deg)": 75.28808472048365,
        "RAAN(deg)": 224.99083255517775,
        "Satellite Name": "Constellation 1 994",
        "Satellite Number": 994,
        "Semi-Major Axis(m)": 7083131.272910544,
        "Time(s)": 162
    },
    {
        "Altitude(m)": 706894.6023253016,
        "Argument of Periapsis(deg)": 0.009771525018001118,
        "Eccentricity": 0.0,
        "Inclination(deg)": 45.0,
        "Latitude(deg)": 43.31863144923387,
        "Longitude(deg)": -165.95750255443454,
        "Mean Anomaly(deg)": 75.34878586073354,
        "RAAN(deg)": 224.99077596601217,
        "Satellite Name": "Constellation 1 994",
        "Satellite Number": 994,
        "Semi-Major Axis(m)": 7083131.272910544,
        "Time(s)": 163
    },
    {
        "Altitude(m)": 706897.9341515186,
        "Argument of Periapsis(deg)": 0.00983147302424652,
        "Eccentricity": 0.0,
        "Inclination(deg)": 45.0,
        "Latitude(deg)": 43.33352810748844,
        "Longitude(deg)": -165.88087288363135,
        "Mean Anomaly(deg)": 75.40948700098346,
        "RAAN(deg)": 224.99071937684658,
        "Satellite Name": "Constellation 1 994",
        "Satellite Number": 994,
        "Semi-Major Axis(m)": 7083131.272910544,
        "Time(s)": 164
    },
    {
        "Altitude(m)": 706901.2537490511,
        "Argument of Periapsis(deg)": 0.009891421030491928,
        "Eccentricity": 0.0,
        "Inclination(deg)": 45.0,
        "Latitude(deg)": 43.34836772853475,
        "Longitude(deg)": -165.80420383810656,
        "Mean Anomaly(deg)": 75.47018814123334,
        "RAAN(deg)": 224.99066278768103,
        "Satellite Name": "Constellation 1 994",
        "Satellite Number": 994,
        "Semi-Major Axis(m)": 7083131.272910544,
        "Time(s)": 165
    },
    {
        "Altitude(m)": 706904.5610982979,
        "Argument of Periapsis(deg)": 0.009951369036737332,
        "Eccentricity": 0.0,
        "Inclination(deg)": 45.0,
        "Latitude(deg)": 43.36315025555541,
        "Longitude(deg)": -165.72749552944862,
        "Mean Anomaly(deg)": 75.53088928148323,
        "RAAN(deg)": 224.99060619851548,
        "Satellite Name": "Constellation 1 994",
        "Satellite Number": 994,
        "Semi-Major Axis(m)": 7083131.272910544,
        "Time(s)": 166
    },
    {
        "Altitude(m)": 706907.856179746,
        "Argument of Periapsis(deg)": 0.010011317042982738,
        "Eccentricity": 0.0,
        "Inclination(deg)": 45.0,
        "Latitude(deg)": 43.37787563188158,
        "Longitude(deg)": -165.65074806980365,
        "Mean Anomaly(deg)": 75.59159042173313,
        "RAAN(deg)": 224.9905496093499,
        "Satellite Name": "Constellation 1 994",
        "Satellite Number": 994,
        "Semi-Major Axis(m)": 7083131.272910544,
        "Time(s)": 167
    },
    {
        "Altitude(m)": 706911.1389739426,
        "Argument of Periapsis(deg)": 0.010071265049228144,
        "Eccentricity": 0.0,
        "Inclination(deg)": 45.0,
        "Latitude(deg)": 43.392543800993806,
        "Longitude(deg)": -165.57396157187551,
        "Mean Anomaly(deg)": 75.65229156198308,
        "RAAN(deg)": 224.99049302018435,
        "Satellite Name": "Constellation 1 994",
        "Satellite Number": 994,
        "Semi-Major Axis(m)": 7083131.272910544,
        "Time(s)": 168
    },
    {
        "Altitude(m)": 706914.4094615259,
        "Argument of Periapsis(deg)": 0.01013121305547355,
        "Eccentricity": 0.0,
        "Inclination(deg)": 45.0,
        "Latitude(deg)": 43.407154706523045,
        "Longitude(deg)": -165.49713614892508,
        "Mean Anomaly(deg)": 75.71299270223291,
        "RAAN(deg)": 224.9904364310188,
        "Satellite Name": "Constellation 1 994",
        "Satellite Number": 994,
        "Semi-Major Axis(m)": 7083131.272910544,
        "Time(s)": 169
    },
    {
        "Altitude(m)": 706917.6676231921,
        "Argument of Periapsis(deg)": 0.010191161061718957,
        "Eccentricity": 0.0,
        "Inclination(deg)": 45.0,
        "Latitude(deg)": 43.421708292251544,
        "Longitude(deg)": -165.42027191476942,
        "Mean Anomaly(deg)": 75.77369384248281,
        "RAAN(deg)": 224.99037984185318,
        "Satellite Name": "Constellation 1 994",
        "Satellite Number": 994,
        "Semi-Major Axis(m)": 7083131.272910544,
        "Time(s)": 170
    }
]